OBJECT_NAME,OBJECT_ID,EPOCH,MEAN_MOTION,ECCENTRICITY,INCLINATION,RA_OF_ASC_NODE,ARG_OF_PERICENTER,MEAN_ANOMALY,EPHEMERIS_TYPE,CLASSIFICATION_TYPE,NORAD_CAT_ID,ELEMENT_SET_NO,REV_AT_EPOCH,BSTAR,MEAN_MOTION_DOT,MEAN_MOTION_DDOT
LEMUR-2-STARLIGHT,2025-276DY,2026-07-17T00:06:16.653024,14.99368921,.0014753,97.5234,267.6244,41.8788,318.3562,0,U,66783,999,3466,.3167E-3,.3825E-4,0
LEMUR-2-TARTIFLETTE,2025-276DZ,2026-07-16T17:39:35.767296,14.99350642,.001392,97.5233,267.3730,51.1069,309.1394,0,U,66784,999,3462,.28561E-3,.3442E-4,0
LEMUR-2-VUKASIN,2025-276EA,2026-07-17T04:07:18.209856,15.00556240,.0002731,97.5216,268.1562,48.5948,311.5510,0,U,66785,999,3464,.1876E-3,.231E-4,0
LEMUR-2-HOTSPUR-TOM,2025-276EB,2026-07-17T03:08:19.733280,14.99252822,.001372,97.5214,267.7279,41.5297,318.6966,0,U,66786,999,3461,.24574E-3,.2945E-4,0
LEMUR-2-MYRA,2025-276EC,2026-07-17T00:05:05.405856,15.00601403,.0018672,97.5220,267.9128,48.8003,311.4828,0,U,66787,999,3468,.2655E-3,.3308E-4,0
LEMUR-2 FIKRETDENGIZ,2026-004A,2026-07-16T21:58:21.753120,14.88523294,.0010084,97.8028,196.0220,50.9013,309.3099,0,U,67363,999,2770,.18124E-3,.1631E-4,0
TWILIGHT-1 OBJECT B,2026-004B,2026-07-16T11:35:07.694016,14.87795828,.0009653,97.8076,195.5957,42.1314,318.0643,0,U,67364,999,2764,.10103E-3,.869E-5,0
LEMUR-2-MARIO-SOUSA,2026-004C,2026-07-16T21:29:00.852000,14.88735447,.0009722,97.8000,195.9968,52.5252,307.6848,0,U,67365,999,2771,.22784E-3,.2076E-4,0
LEMUR-2-SONNENBLUME,2026-004E,2026-07-16T21:33:34.543008,14.88457950,.0009301,97.8001,195.9719,53.4556,306.7516,0,U,67367,999,2771,.1483E-3,.1322E-4,0
LEMUR-2-WOBLER,2026-004F,2026-07-16T22:54:32.112576,14.88705265,.0009372,97.8051,196.1802,44.9852,315.2123,0,U,67368,999,2772,.22273E-3,.2026E-4,0
LEMUR-2-GRAM-E-SUE,2026-004H,2026-07-16T13:02:37.232736,14.88592787,.0008517,97.7987,195.6391,57.3306,302.8731,0,U,67370,999,2766,.1358E-3,.1211E-4,0
LEMUR-2-KATIE,2026-004AA,2026-07-16T13:35:10.176864,14.90258470,.0003383,97.8044,196.2176,30.9861,329.1556,0,U,67387,999,2768,.2323E-3,.2199E-4,0
LEMUR-2-HCS-BAZUS,2026-004AB,2026-07-16T23:12:54.414144,14.90268291,.000286,97.8039,196.5918,29.0144,331.1232,0,U,67388,999,2774,.16332E-3,.153E-4,0
